<?xml version="1.0" encoding="UTF-8"?>
<ndm xmlns:xsi="http://www.w3.org/2001/XMLSchema-instance" xsi:noNamespaceSchemaLocation="https://sanaregistry.org/r/ndmxml_unqualified/ndmxml-2.0.0-master-2.0.xsd">
<omm id="CCSDS_OMM_VERS" version="2.0">
<header><CREATION_DATE/><ORIGINATOR/></header><body><segment><metadata><OBJECT_NAME>ORBCOMM FM24 [-]</OBJECT_NAME><OBJECT_ID>1998-053D</OBJECT_ID><CENTER_NAME>EARTH</CENTER_NAME><REF_FRAME>TEME</REF_FRAME><TIME_SYSTEM>UTC</TIME_SYSTEM><MEAN_ELEMENT_THEORY>SGP4</MEAN_ELEMENT_THEORY></metadata><data><meanElements><EPOCH>2023-11-20T16:38:56.735808</EPOCH><MEAN_MOTION>14.34905099</MEAN_MOTION><ECCENTRICITY>.0002079</ECCENTRICITY><INCLINATION>45.0080</INCLINATION><RA_OF_ASC_NODE>105.6908</RA_OF_ASC_NODE><ARG_OF_PERICENTER>208.6538</ARG_OF_PERICENTER><MEAN_ANOMALY>151.4195</MEAN_ANOMALY></meanElements><tleParameters><EPHEMERIS_TYPE>0</EPHEMERIS_TYPE><CLASSIFICATION_TYPE>U</CLASSIFICATION_TYPE><NORAD_CAT_ID>25478</NORAD_CAT_ID><ELEMENT_SET_NO>999</ELEMENT_SET_NO><REV_AT_EPOCH>31484</REV_AT_EPOCH><BSTAR>.4199E-3</BSTAR><MEAN_MOTION_DOT>.1063E-4</MEAN_MOTION_DOT><MEAN_MOTION_DDOT>0</MEAN_MOTION_DDOT></tleParameters></data></segment></body></omm>
<omm id="CCSDS_OMM_VERS" version="2.0">
<header><CREATION_DATE/><ORIGINATOR/></header><body><segment><metadata><OBJECT_NAME>ORBCOMM FM25 [-]</OBJECT_NAME><OBJECT_ID>1998-053E</OBJECT_ID><CENTER_NAME>EARTH</CENTER_NAME><REF_FRAME>TEME</REF_FRAME><TIME_SYSTEM>UTC</TIME_SYSTEM><MEAN_ELEMENT_THEORY>SGP4</MEAN_ELEMENT_THEORY></metadata><data><meanElements><EPOCH>2023-11-20T19:08:02.638464</EPOCH><MEAN_MOTION>14.34890154</MEAN_MOTION><ECCENTRICITY>.0004317</ECCENTRICITY><INCLINATION>45.0071</INCLINATION><RA_OF_ASC_NODE>103.4376</RA_OF_ASC_NODE><ARG_OF_PERICENTER>237.2629</ARG_OF_PERICENTER><MEAN_ANOMALY>122.7803</MEAN_ANOMALY></meanElements><tleParameters><EPHEMERIS_TYPE>0</EPHEMERIS_TYPE><CLASSIFICATION_TYPE>U</CLASSIFICATION_TYPE><NORAD_CAT_ID>25479</NORAD_CAT_ID><ELEMENT_SET_NO>999</ELEMENT_SET_NO><REV_AT_EPOCH>31515</REV_AT_EPOCH><BSTAR>.42219E-3</BSTAR><MEAN_MOTION_DOT>.107E-4</MEAN_MOTION_DOT><MEAN_MOTION_DDOT>0</MEAN_MOTION_DDOT></tleParameters></data></segment></body></omm>
<omm id="CCSDS_OMM_VERS" version="2.0">
<header><CREATION_DATE/><ORIGINATOR/></header><body><segment><metadata><OBJECT_NAME>ORBCOMM FM26 [-]</OBJECT_NAME><OBJECT_ID>1998-053F</OBJECT_ID><CENTER_NAME>EARTH</CENTER_NAME><REF_FRAME>TEME</REF_FRAME><TIME_SYSTEM>UTC</TIME_SYSTEM><MEAN_ELEMENT_THEORY>SGP4</MEAN_ELEMENT_THEORY></metadata><data><meanElements><EPOCH>2023-11-20T16:10:57.743616</EPOCH><MEAN_MOTION>14.34441142</MEAN_MOTION><ECCENTRICITY>.0005983</ECCENTRICITY><INCLINATION>45.0066</INCLINATION><RA_OF_ASC_NODE>97.4851</RA_OF_ASC_NODE><ARG_OF_PERICENTER>262.0786</ARG_OF_PERICENTER><MEAN_ANOMALY>97.9382</MEAN_ANOMALY></meanElements><tleParameters><EPHEMERIS_TYPE>0</EPHEMERIS_TYPE><CLASSIFICATION_TYPE>U</CLASSIFICATION_TYPE><NORAD_CAT_ID>25480</NORAD_CAT_ID><ELEMENT_SET_NO>999</ELEMENT_SET_NO><REV_AT_EPOCH>31508</REV_AT_EPOCH><BSTAR>.3865E-3</BSTAR><MEAN_MOTION_DOT>.958E-5</MEAN_MOTION_DOT><MEAN_MOTION_DDOT>0</MEAN_MOTION_DDOT></tleParameters></data></segment></body></omm>
<omm id="CCSDS_OMM_VERS" version="2.0">
<header><CREATION_DATE/><ORIGINATOR/></header><body><segment><metadata><OBJECT_NAME>ORBCOMM FM27 [+]</OBJECT_NAME><OBJECT_ID>1998-053G</OBJECT_ID><CENTER_NAME>EARTH</CENTER_NAME><REF_FRAME>TEME</REF_FRAME><TIME_SYSTEM>UTC</TIME_SYSTEM><MEAN_ELEMENT_THEORY>SGP4</MEAN_ELEMENT_THEORY></metadata><data><meanElements><EPOCH>2023-11-20T13:46:16.262976</EPOCH><MEAN_MOTION>14.34861754</MEAN_MOTION><ECCENTRICITY>.0000892</ECCENTRICITY><INCLINATION>45.0054</INCLINATION><RA_OF_ASC_NODE>104.7496</RA_OF_ASC_NODE><ARG_OF_PERICENTER>167.8843</ARG_OF_PERICENTER><MEAN_ANOMALY>192.2026</MEAN_ANOMALY></meanElements><tleParameters><EPHEMERIS_TYPE>0</EPHEMERIS_TYPE><CLASSIFICATION_TYPE>U</CLASSIFICATION_TYPE><NORAD_CAT_ID>25481</NORAD_CAT_ID><ELEMENT_SET_NO>999</ELEMENT_SET_NO><REV_AT_EPOCH>31505</REV_AT_EPOCH><BSTAR>.42463E-3</BSTAR><MEAN_MOTION_DOT>.1076E-4</MEAN_MOTION_DOT><MEAN_MOTION_DDOT>0</MEAN_MOTION_DDOT></tleParameters></data></segment></body></omm>
<omm id="CCSDS_OMM_VERS" version="2.0">
<header><CREATION_DATE/><ORIGINATOR/></header><body><segment><metadata><OBJECT_NAME>ORBCOMM FM28 [-]</OBJECT_NAME><OBJECT_ID>1998-053H</OBJECT_ID><CENTER_NAME>EARTH</CENTER_NAME><REF_FRAME>TEME</REF_FRAME><TIME_SYSTEM>UTC</TIME_SYSTEM><MEAN_ELEMENT_THEORY>SGP4</MEAN_ELEMENT_THEORY></metadata><data><meanElements><EPOCH>2023-11-20T16:26:54.251232</EPOCH><MEAN_MOTION>14.35353189</MEAN_MOTION><ECCENTRICITY>.0004864</ECCENTRICITY><INCLINATION>45.0078</INCLINATION><RA_OF_ASC_NODE>43.2991</RA_OF_ASC_NODE><ARG_OF_PERICENTER>279.6400</ARG_OF_PERICENTER><MEAN_ANOMALY>80.3898</MEAN_ANOMALY></meanElements><tleParameters><EPHEMERIS_TYPE>0</EPHEMERIS_TYPE><CLASSIFICATION_TYPE>U</CLASSIFICATION_TYPE><NORAD_CAT_ID>25482</NORAD_CAT_ID><ELEMENT_SET_NO>999</ELEMENT_SET_NO><REV_AT_EPOCH>31573</REV_AT_EPOCH><BSTAR>.38546E-3</BSTAR><MEAN_MOTION_DOT>.974E-5</MEAN_MOTION_DOT><MEAN_MOTION_DDOT>0</MEAN_MOTION_DDOT></tleParameters></data></segment></body></omm>
<omm id="CCSDS_OMM_VERS" version="2.0">
<header><CREATION_DATE/><ORIGINATOR/></header><body><segment><metadata><OBJECT_NAME>ORBCOMM FM30 [-]</OBJECT_NAME><OBJECT_ID>1999-065A</OBJECT_ID><CENTER_NAME>EARTH</CENTER_NAME><REF_FRAME>TEME</REF_FRAME><TIME_SYSTEM>UTC</TIME_SYSTEM><MEAN_ELEMENT_THEORY>SGP4</MEAN_ELEMENT_THEORY></metadata><data><meanElements><EPOCH>2023-11-20T13:59:39.823584</EPOCH><MEAN_MOTION>14.34575967</MEAN_MOTION><ECCENTRICITY>.0006974</ECCENTRICITY><INCLINATION>45.0329</INCLINATION><RA_OF_ASC_NODE>283.2791</RA_OF_ASC_NODE><ARG_OF_PERICENTER>359.4661</ARG_OF_PERICENTER><MEAN_ANOMALY>0.6178</MEAN_ANOMALY></meanElements><tleParameters><EPHEMERIS_TYPE>0</EPHEMERIS_TYPE><CLASSIFICATION_TYPE>U</CLASSIFICATION_TYPE><NORAD_CAT_ID>25980</NORAD_CAT_ID><ELEMENT_SET_NO>999</ELEMENT_SET_NO><REV_AT_EPOCH>25239</REV_AT_EPOCH><BSTAR>.37334E-3</BSTAR><MEAN_MOTION_DOT>.923E-5</MEAN_MOTION_DOT><MEAN_MOTION_DDOT>0</MEAN_MOTION_DDOT></tleParameters></data></segment></body></omm>
<omm id="CCSDS_OMM_VERS" version="2.0">
<header><CREATION_DATE/><ORIGINATOR/></header><body><segment><metadata><OBJECT_NAME>ORBCOMM FM31 [-]</OBJECT_NAME><OBJECT_ID>1999-065B</OBJECT_ID><CENTER_NAME>EARTH</CENTER_NAME><REF_FRAME>TEME</REF_FRAME><TIME_SYSTEM>UTC</TIME_SYSTEM><MEAN_ELEMENT_THEORY>SGP4</MEAN_ELEMENT_THEORY></metadata><data><meanElements><EPOCH>2023-11-20T21:33:28.675584</EPOCH><MEAN_MOTION>14.34598765</MEAN_MOTION><ECCENTRICITY>.0003702</ECCENTRICITY><INCLINATION>45.0242</INCLINATION><RA_OF_ASC_NODE>275.6235</RA_OF_ASC_NODE><ARG_OF_PERICENTER>10.7380</ARG_OF_PERICENTER><MEAN_ANOMALY>349.3545</MEAN_ANOMALY></meanElements><tleParameters><EPHEMERIS_TYPE>0</EPHEMERIS_TYPE><CLASSIFICATION_TYPE>U</CLASSIFICATION_TYPE><NORAD_CAT_ID>25981</NORAD_CAT_ID><ELEMENT_SET_NO>999</ELEMENT_SET_NO><REV_AT_EPOCH>25146</REV_AT_EPOCH><BSTAR>.33709E-3</BSTAR><MEAN_MOTION_DOT>.82E-5</MEAN_MOTION_DOT><MEAN_MOTION_DDOT>0</MEAN_MOTION_DDOT></tleParameters></data></segment></body></omm>
<omm id="CCSDS_OMM_VERS" version="2.0">
<header><CREATION_DATE/><ORIGINATOR/></header><body><segment><metadata><OBJECT_NAME>ORBCOMM FM32 [+]</OBJECT_NAME><OBJECT_ID>1999-065C</OBJECT_ID><CENTER_NAME>EARTH</CENTER_NAME><REF_FRAME>TEME</REF_FRAME><TIME_SYSTEM>UTC</TIME_SYSTEM><MEAN_ELEMENT_THEORY>SGP4</MEAN_ELEMENT_THEORY></metadata><data><meanElements><EPOCH>2023-11-20T14:47:29.394816</EPOCH><MEAN_MOTION>14.33542368</MEAN_MOTION><ECCENTRICITY>.0005633</ECCENTRICITY><INCLINATION>45.0172</INCLINATION><RA_OF_ASC_NODE>289.4966</RA_OF_ASC_NODE><ARG_OF_PERICENTER>19.3966</ARG_OF_PERICENTER><MEAN_ANOMALY>340.7094</MEAN_ANOMALY></meanElements><tleParameters><EPHEMERIS_TYPE>0</EPHEMERIS_TYPE><CLASSIFICATION_TYPE>U</CLASSIFICATION_TYPE><NORAD_CAT_ID>25982</NORAD_CAT_ID><ELEMENT_SET_NO>999</ELEMENT_SET_NO><REV_AT_EPOCH>25207</REV_AT_EPOCH><BSTAR>.35972E-3</BSTAR><MEAN_MOTION_DOT>.863E-5</MEAN_MOTION_DOT><MEAN_MOTION_DDOT>0</MEAN_MOTION_DDOT></tleParameters></data></segment></body></omm>

</ndm>
