ORBCOMM FM24 [-]        
1 25478U 98053D   23324.69371222  .00001063  00000+0  41990-3 0  9992
2 25478  45.0080 105.6908 0002079 208.6538 151.4195 14.34905099314844
ORBCOMM FM25 [-]        
1 25479U 98053E   23324.79725276  .00001070  00000+0  42219-3 0  9999
2 25479  45.0071 103.4376 0004317 237.2629 122.7803 14.34890154315153
ORBCOMM FM26 [-]        
1 25480U 98053F   23324.67427944  .00000958  00000+0  38650-3 0  9997
2 25480  45.0066  97.4851 0005983 262.0786  97.9382 14.34441142315085
ORBCOMM FM27 [+]        
1 25481U 98053G   23324.57379934  .00001076  00000+0  42463-3 0  9991
2 25481  45.0054 104.7496 0000892 167.8843 192.2026 14.34861754315056
ORBCOMM FM28 [-]        
1 25482U 98053H   23324.68535013  .00000974  00000+0  38546-3 0  9999
2 25482  45.0078  43.2991 0004864 279.6400  80.3898 14.35353189315732
ORBCOMM FM30 [-]        
1 25980U 99065A   23324.58309981  .00000923  00000+0  37334-3 0  9996
2 25980  45.0329 283.2791 0006974 359.4661   0.6178 14.34575967252395
ORBCOMM FM31 [-]        
1 25981U 99065B   23324.89824856  .00000820  00000+0  33709-3 0  9992
2 25981  45.0242 275.6235 0003702  10.7380 349.3545 14.34598765251468
ORBCOMM FM32 [+]        
1 25982U 99065C   23324.61631244  .00000863  00000+0  35972-3 0  9991
2 25982  45.0172 289.4966 0005633  19.3966 340.7094 14.33542368252074
